RASSVET 1-2
1 57170U 23091E   25052.15951439  .00009701  00000-0  52673-3 0  9999
2 57170  97.5802 109.0428 0010354 333.2519  26.8177 15.14695607 91113
RASSVET 1-3
1 57171U 23091F   25052.22521361  .00010410  00000-0  56445-3 0  9995
2 57171  97.5799 109.0825 0012939 351.8799   8.2221 15.14698493 91128
UMKA-1 (RS40S)
1 57172U 23091G   25052.18223371  .00009267  00000-0  52351-3 0  9991
2 57172  97.5753 108.1848 0014729 353.7043   6.4001 15.13241779 91076
SATURN (RS43S)
1 57174U 23091J   25052.16961719  .00005180  00000-0  32806-3 0  9999
2 57174  97.5766 106.5756 0014701   8.3453 351.8018 15.09310574 90967
CUBEBEL-2 (EU11S)
1 57175U 23091K   25052.19234077  .00013174  00000-0  68613-3 0  9990
2 57175  97.5755 108.7741 0012894   4.2403 355.8936 15.16062113 91117
SITRO-AIS-5 (ANOKHIN)
1 57176U 23091L   25052.21125014  .00013936  00000-0  71591-3 0  9999
2 57176  97.5762 109.1303 0014661 351.1294   8.9677 15.16513074 91138
ZORKIY-2M
1 57177U 23091M   25052.16491334  .00008174  00000-0  46425-3 0  9991
2 57177  97.5788 108.3544 0015426 349.0352  11.0541 15.13079373 91070
CUBESX-HSE-3 (RS42S)
1 57178U 23091N   25052.17641810  .00014028  00000-0  70472-3 0  9993
2 57178  97.5784 109.6994 0014055 343.7837  16.2944 15.17304291 91153
PHI-DEMO
1 57181U 23091R   25052.16143243  .00006118  00000-0  38048-3 0  9997
2 57181  97.5770 106.8779 0016591 358.6544   1.4638 15.09881416 90985
MONITOR-3 (RS58S)
1 57180U 23091Q   25052.16390236  .00012796  00000-0  66640-3 0  9990
2 57180  97.5781 109.2064 0014620 345.5712  14.5101 15.16051470 91127
NORBY-2
1 57179U 23091P   25052.05342105  .00006022  00000-0  36374-3 0  9994
2 57179  97.5800 107.4780 0016361 350.8997   9.1934 15.10960625 90993
MONITOR-4 (RS57S)
1 57182U 23091S   25052.16327865  .00012890  00000-0  67056-3 0  9997
2 57182  97.5776 109.1644 0014680 346.0833  13.9993 15.16089001 91125
MONITOR-2 (RS39S)
1 57184U 23091U   25052.12323508  .00006998  00000-0  40405-3 0  9996
2 57184  97.5783 108.4992 0012364 344.7163  15.3692 15.12578710 91073
SVYATOBOR-1 (RS60S)
1 57187U 23091X   25052.13101797  .00010369  00000-0  53923-3 0  9990
2 57187  97.5783 109.8777 0011136 338.3732  21.7029 15.16196500 91161
VIZARD-METEO (RS38S)
1 57189U 23091Z   25052.17154674  .00016087  00000-0  75581-3 0  9995
2 57189  97.5771 111.1428 0009705 332.2393  27.8322 15.19650393 91255
NANOZOND-1 (RS49S)
1 57190U 23091AA  25052.16696774  .00028335  00000-0  10436-2 0  9994
2 57190  97.5730 113.3915 0007313 329.2487  30.8323 15.27775909 91413
SITRO-AIS-6 (CHIRKIN)
1 57192U 23091AC  25052.12725038  .00012480  00000-0  64273-3 0  9991
2 57192  97.5757 109.0719 0014549 351.0991   8.9982 15.16453571 91121
SITRO-AIS-8 (SHCHUKIN)
1 57193U 23091AD  25052.12366744  .00013647  00000-0  68184-3 0  9998
2 57193  97.5753 109.3698 0014117 351.0607   9.0373 15.17502295 91149
SITRO-AIS-7 (SHEFFER)
1 57194U 23091AE  25052.07708221  .00012531  00000-0  64642-3 0  9999
2 57194  97.5758 108.9751 0014465 352.2425   7.8581 15.16394569 91113
AVION KALUGA 650
1 57195U 23091AF  25052.17741794  .00008839  00000-0  49982-3 0  9999
2 57195  97.5793 108.9849 0011616 344.6539  15.4338 15.13257678 91107
YARILO 3
1 57198U 23091AJ  25052.17536179  .00114897  00000-0  19399-2 0  9991
2 57198  97.5721 118.4042 0005679 297.8210  62.2466 15.51205022 91716
SITRO-AIS-10 (KATYS)
1 57199U 23091AK  25052.19260059  .00017279  00000-0  79721-3 0  9997
2 57199  97.5765 111.2324 0009524 337.0897  22.9912 15.20263803 91266
HORS-1
1 57188U 23091Y   25052.12842668  .00010197  00000-0  53050-3 0  9999
2 57188  97.5764 109.7335 0010638 339.0998  20.9798 15.16192138 91165
HORS-2
1 57196U 23091AG  25052.13371460  .00012925  00000-0  63437-3 0  9997
2 57196  97.5777 110.5967 0010296 338.1217  21.9575 15.18179951 91213
