OBJECT_NAME,OBJECT_ID,EPOCH,MEAN_MOTION,ECCENTRICITY,INCLINATION,RA_OF_ASC_NODE,ARG_OF_PERICENTER,MEAN_ANOMALY,EPHEMERIS_TYPE,CLASSIFICATION_TYPE,NORAD_CAT_ID,ELEMENT_SET_NO,REV_AT_EPOCH,BSTAR,MEAN_MOTION_DOT,MEAN_MOTION_DDOT
2023-091E,2023-091E,2025-02-21T03:49:42.043296,15.14695607,.0010354,97.5802,109.0428,333.2519,26.8177,0,U,57170,999,9111,.52673E-3,.9701E-4,0
2023-091F,2023-091F,2025-02-21T05:24:18.455904,15.14698493,.0012939,97.5799,109.0825,351.8799,8.2221,0,U,57171,999,9112,.56445E-3,.1041E-3,0
UMKA 1 (RS40S),2023-091G,2025-02-21T04:22:24.992544,15.13241779,.0014729,97.5753,108.1848,353.7043,6.4001,0,U,57172,999,9107,.52351E-3,.9267E-4,0
2023-091J,2023-091J,2025-02-21T04:04:14.925216,15.09310574,.0014701,97.5766,106.5756,8.3453,351.8018,0,U,57174,999,9096,.32806E-3,.518E-4,0
CUBEBEL 2 (EU11S),2023-091K,2025-02-21T04:36:58.242528,15.16062113,.0012894,97.5755,108.7741,4.2403,355.8936,0,U,57175,999,9111,.68613E-3,.13174E-3,0
SITRO-AIS 5 (KATYS),2023-091L,2025-02-21T05:04:12.012096,15.16513074,.0014661,97.5762,109.1303,351.1294,8.9677,0,U,57176,999,9113,.71591E-3,.13936E-3,0
ZORKIY-2M 1,2023-091M,2025-02-21T03:57:28.512576,15.13079373,.0015426,97.5788,108.3544,349.0352,11.0541,0,U,57177,999,9107,.46425E-3,.8174E-4,0
CUBESX-HSE 3 (RS42S),2023-091N,2025-02-21T04:14:02.523840,15.17304291,.0014055,97.5784,109.6994,343.7837,16.2944,0,U,57178,999,9115,.70472E-3,.14028E-3,0
2023-091P,2023-091P,2025-02-21T01:16:55.578720,15.10960625,.0016361,97.5800,107.4780,350.8997,9.1934,0,U,57179,999,9099,.36374E-3,.6022E-4,0
MONITOR-3 (RS58S),2023-091Q,2025-02-21T03:56:01.163904,15.16051470,.001462,97.5781,109.2064,345.5712,14.5101,0,U,57180,999,9112,.6664E-3,.12796E-3,0
2023-091R,2023-091R,2025-02-21T03:52:27.761952,15.09881416,.0016591,97.5770,106.8779,358.6544,1.4638,0,U,57181,999,9098,.38048E-3,.6118E-4,0
MONITOR-4 (RS57S),2023-091S,2025-02-21T03:55:07.275360,15.16089001,.001468,97.5776,109.1644,346.0833,13.9993,0,U,57182,999,9112,.67056E-3,.1289E-3,0
MONITOR-2 (RS39S),2023-091U,2025-02-21T02:57:27.510912,15.12578710,.0012364,97.5783,108.4992,344.7163,15.3692,0,U,57184,999,9107,.40405E-3,.6998E-4,0
SVYATOBOR 1 (RS60S),2023-091X,2025-02-21T03:08:39.952608,15.16196500,.0011136,97.5783,109.8777,338.3732,21.7029,0,U,57187,999,9116,.53923E-3,.10369E-3,0
HORS 1,2023-091Y,2025-02-21T03:04:56.065152,15.16192138,.0010638,97.5764,109.7335,339.0998,20.9798,0,U,57188,999,9116,.5305E-3,.10197E-3,0
VIZARD-METEO (RS38S),2023-091Z,2025-02-21T04:07:01.638336,15.19650393,.0009705,97.5771,111.1428,332.2393,27.8322,0,U,57189,999,9125,.75581E-3,.16087E-3,0
NANOZOND 1 (RS49S),2023-091AA,2025-02-21T04:00:26.012736,15.27775909,.0007313,97.5730,113.3915,329.2487,30.8323,0,U,57190,999,9141,.10436E-2,.28335E-3,0
SITRO-AIS 6 (CHIRKIN),2023-091AC,2025-02-21T03:03:14.432832,15.16453571,.0014549,97.5757,109.0719,351.0991,8.9982,0,U,57192,999,9112,.64273E-3,.1248E-3,0
SITRO-AIS 8 (ANOKHIN),2023-091AD,2025-02-21T02:58:04.866816,15.17502295,.0014117,97.5753,109.3698,351.0607,9.0373,0,U,57193,999,9114,.68184E-3,.13647E-3,0
SITRO-AIS 7 (FARTUSHNIY),2023-091AE,2025-02-21T01:50:59.902944,15.16394569,.0014465,97.5758,108.9751,352.2425,7.8581,0,U,57194,999,9111,.64642E-3,.12531E-3,0
AVION KALUGA 650,2023-091AF,2025-02-21T04:15:28.910016,15.13257678,.0011616,97.5793,108.9849,344.6539,15.4338,0,U,57195,999,9110,.49982E-3,.8839E-4,0
HORS 2,2023-091AG,2025-02-21T03:12:32.941440,15.18179951,.0010296,97.5777,110.5967,338.1217,21.9575,0,U,57196,999,9121,.63437E-3,.12925E-3,0
YARILO 3,2023-091AJ,2025-02-21T04:12:31.258656,15.51205022,.0005679,97.5721,118.4042,297.8210,62.2466,0,U,57198,999,9171,.19399E-2,.114897E-2,0
SITRO-AIS 10 (BURDAEV),2023-091AK,2025-02-21T04:37:20.690976,15.20263803,.0009524,97.5765,111.2324,337.0897,22.9912,0,U,57199,999,9126,.79721E-3,.17279E-3,0
